[{"OBJECT_NAME":"STARLINK-32432","OBJECT_ID":"2024-175Q","EPOCH":"2026-03-09T15:04:14.896416","MEAN_MOTION":15.30202075,"ECCENTRICITY":9.72e-5,"INCLINATION":53.1597,"RA_OF_ASC_NODE":194.3614,"ARG_OF_PERICENTER":61.6966,"MEAN_ANOMALY":298.4133,"EPHEMERIS_TYPE":0,"CLASSIFICATION_TYPE":"U","NORAD_CAT_ID":61257,"ELEMENT_SET_NO":999,"REV_AT_EPOCH":8144,"BSTAR":-3.798e-5,"MEAN_MOTION_DOT":-1.484e-5,"MEAN_MOTION_DDOT":0},{"OBJECT_NAME":"OBJECT M","OBJECT_ID":"2025-155M","EPOCH":"2026-03-09T22:37:12.666144","MEAN_MOTION":15.33288683,"ECCENTRICITY":0.00088001,"INCLINATION":97.4429,"RA_OF_ASC_NODE":38.1052,"ARG_OF_PERICENTER":139.1253,"MEAN_ANOMALY":221.0651,"EPHEMERIS_TYPE":0,"CLASSIFICATION_TYPE":"U","NORAD_CAT_ID":64887,"ELEMENT_SET_NO":999,"REV_AT_EPOCH":6565,"BSTAR":0.00087834095,"MEAN_MOTION_DOT":0.00028279,"MEAN_MOTION_DDOT":0}]
